[{"OBJECT_NAME":"STARLINK-4300","OBJECT_ID":"2022-083AT","EPOCH":"2026-03-09T11:11:27.442176","MEAN_MOTION":15.08844016,"ECCENTRICITY":0.00012528,"INCLINATION":53.2153,"RA_OF_ASC_NODE":140.1125,"ARG_OF_PERICENTER":83.9868,"MEAN_ANOMALY":276.1267,"EPHEMERIS_TYPE":0,"CLASSIFICATION_TYPE":"U","NORAD_CAT_ID":53173,"ELEMENT_SET_NO":999,"REV_AT_EPOCH":20166,"BSTAR":7.551612e-6,"MEAN_MOTION_DOT":-1.68e-6,"MEAN_MOTION_DDOT":0},{"OBJECT_NAME":"FENGYUN 1C DEB","OBJECT_ID":"1999-025AVL","EPOCH":"2026-03-06T12:53:29.086080","MEAN_MOTION":14.83381217,"ECCENTRICITY":0.01434433,"INCLINATION":98.8652,"RA_OF_ASC_NODE":274.6705,"ARG_OF_PERICENTER":90.518,"MEAN_ANOMALY":301.133,"EPHEMERIS_TYPE":0,"CLASSIFICATION_TYPE":"U","NORAD_CAT_ID":30826,"ELEMENT_SET_NO":999,"REV_AT_EPOCH":1528,"BSTAR":0.00060190522,"MEAN_MOTION_DOT":5.85e-5,"MEAN_MOTION_DDOT":0}]
